[{"OBJECT_NAME":"ONEWEB-0403","OBJECT_ID":"2021-132Q","EPOCH":"2025-11-30T14:59:34.466208","MEAN_MOTION":13.18684084,"ECCENTRICITY":0.00016976,"INCLINATION":87.9193,"RA_OF_ASC_NODE":14.8897,"ARG_OF_PERICENTER":98.2632,"MEAN_ANOMALY":261.8692,"EPHEMERIS_TYPE":0,"CLASSIFICATION_TYPE":"U","NORAD_CAT_ID":50483,"ELEMENT_SET_NO":999,"REV_AT_EPOCH":19542,"BSTAR":3.2536449e-5,"MEAN_MOTION_DOT":2.6e-7,"MEAN_MOTION_DDOT":0},{"OBJECT_NAME":"ONEWEB-0404","OBJECT_ID":"2021-132R","EPOCH":"2025-11-30T12:03:01.801152","MEAN_MOTION":13.11417201,"ECCENTRICITY":0.00014202,"INCLINATION":87.8866,"RA_OF_ASC_NODE":60.6382,"ARG_OF_PERICENTER":114.5196,"MEAN_ANOMALY":245.608,"EPHEMERIS_TYPE":0,"CLASSIFICATION_TYPE":"U","NORAD_CAT_ID":50484,"ELEMENT_SET_NO":999,"REV_AT_EPOCH":18965,"BSTAR":-0.0014758003,"MEAN_MOTION_DOT":-5.1e-6,"MEAN_MOTION_DDOT":0},{"OBJECT_NAME":"ONEWEB-0405","OBJECT_ID":"2021-132S","EPOCH":"2025-11-30T13:31:41.160576","MEAN_MOTION":13.1868439,"ECCENTRICITY":0.0001978,"INCLINATION":87.9194,"RA_OF_ASC_NODE":14.8862,"ARG_OF_PERICENTER":103.9625,"MEAN_ANOMALY":256.1727,"EPHEMERIS_TYPE":0,"CLASSIFICATION_TYPE":"U","NORAD_CAT_ID":50485,"ELEMENT_SET_NO":999,"REV_AT_EPOCH":19581,"BSTAR":8.0881291e-5,"MEAN_MOTION_DOT":4.5e-7,"MEAN_MOTION_DDOT":0},{"OBJECT_NAME":"ONEWEB-0406","OBJECT_ID":"2021-132T","EPOCH":"2025-11-30T13:17:26.665440","MEAN_MOTION":13.18684914,"ECCENTRICITY":0.00012458,"INCLINATION":87.9195,"RA_OF_ASC_NODE":14.9126,"ARG_OF_PERICENTER":96.2037,"MEAN_ANOMALY":263.9237,"EPHEMERIS_TYPE":0,"CLASSIFICATION_TYPE":"U","NORAD_CAT_ID":50486,"ELEMENT_SET_NO":999,"REV_AT_EPOCH":19544,"BSTAR":7.3981334e-5,"MEAN_MOTION_DOT":4.2e-7,"MEAN_MOTION_DDOT":0},{"OBJECT_NAME":"ONEWEB-0407","OBJECT_ID":"2021-132U","EPOCH":"2025-11-30T14:57:11.928672","MEAN_MOTION":13.18684509,"ECCENTRICITY":0.00019615,"INCLINATION":87.9193,"RA_OF_ASC_NODE":14.8827,"ARG_OF_PERICENTER":95.2583,"MEAN_ANOMALY":264.8773,"EPHEMERIS_TYPE":0,"CLASSIFICATION_TYPE":"U","NORAD_CAT_ID":50487,"ELEMENT_SET_NO":999,"REV_AT_EPOCH":19539,"BSTAR":7.6060875e-5,"MEAN_MOTION_DOT":4.3e-7,"MEAN_MOTION_DDOT":0},{"OBJECT_NAME":"ONEWEB-0409","OBJECT_ID":"2021-132V","EPOCH":"2025-11-30T12:00:35.614944","MEAN_MOTION":13.11417426,"ECCENTRICITY":0.00012851,"INCLINATION":87.8881,"RA_OF_ASC_NODE":60.6057,"ARG_OF_PERICENTER":107.6975,"MEAN_ANOMALY":252.4293,"EPHEMERIS_TYPE":0,"CLASSIFICATION_TYPE":"U","NORAD_CAT_ID":50488,"ELEMENT_SET_NO":999,"REV_AT_EPOCH":18954,"BSTAR":-0.0015191231,"MEAN_MOTION_DOT":-5.26e-6,"MEAN_MOTION_DDOT":0},{"OBJECT_NAME":"ONEWEB-0412","OBJECT_ID":"2021-132W","EPOCH":"2025-11-30T14:40:34.701600","MEAN_MOTION":13.18685336,"ECCENTRICITY":0.00020985,"INCLINATION":87.9195,"RA_OF_ASC_NODE":14.8977,"ARG_OF_PERICENTER":102.6895,"MEAN_ANOMALY":257.4472,"EPHEMERIS_TYPE":0,"CLASSIFICATION_TYPE":"U","NORAD_CAT_ID":50489,"ELEMENT_SET_NO":999,"REV_AT_EPOCH":19548,"BSTAR":0.00013649193,"MEAN_MOTION_DOT":6.7e-7,"MEAN_MOTION_DDOT":0},{"OBJECT_NAME":"ONEWEB-0413","OBJECT_ID":"2021-132X","EPOCH":"2025-11-30T14:47:42.798912","MEAN_MOTION":13.18686608,"ECCENTRICITY":0.00021265,"INCLINATION":87.9186,"RA_OF_ASC_NODE":14.9107,"ARG_OF_PERICENTER":98.8745,"MEAN_ANOMALY":261.2627,"EPHEMERIS_TYPE":0,"CLASSIFICATION_TYPE":"U","NORAD_CAT_ID":50490,"ELEMENT_SET_NO":999,"REV_AT_EPOCH":19542,"BSTAR":0.00016344569,"MEAN_MOTION_DOT":7.7e-7,"MEAN_MOTION_DDOT":0},{"OBJECT_NAME":"ONEWEB-0414","OBJECT_ID":"2021-132Y","EPOCH":"2025-11-30T14:26:19.583520","MEAN_MOTION":13.18684716,"ECCENTRICITY":0.00018881,"INCLINATION":87.9196,"RA_OF_ASC_NODE":14.8758,"ARG_OF_PERICENTER":103.4502,"MEAN_ANOMALY":256.6841,"EPHEMERIS_TYPE":0,"CLASSIFICATION_TYPE":"U","NORAD_CAT_ID":50491,"ELEMENT_SET_NO":999,"REV_AT_EPOCH":19545,"BSTAR":0.00010993846,"MEAN_MOTION_DOT":5.6e-7,"MEAN_MOTION_DDOT":0},{"OBJECT_NAME":"ONEWEB-0417","OBJECT_ID":"2021-132Z","EPOCH":"2025-11-30T14:38:12.193440","MEAN_MOTION":13.18684676,"ECCENTRICITY":0.00015784,"INCLINATION":87.9195,"RA_OF_ASC_NODE":14.9077,"ARG_OF_PERICENTER":95.4989,"MEAN_ANOMALY":264.6323,"EPHEMERIS_TYPE":0,"CLASSIFICATION_TYPE":"U","NORAD_CAT_ID":50492,"ELEMENT_SET_NO":999,"REV_AT_EPOCH":19543,"BSTAR":0.00011265948,"MEAN_MOTION_DOT":5.7e-7,"MEAN_MOTION_DDOT":0},{"OBJECT_NAME":"ONEWEB-0418","OBJECT_ID":"2021-132AA","EPOCH":"2025-11-30T14:52:14.140704","MEAN_MOTION":13.18684725,"ECCENTRICITY":0.00013567,"INCLINATION":87.9195,"RA_OF_ASC_NODE":14.8906,"ARG_OF_PERICENTER":103.7829,"MEAN_ANOMALY":256.3454,"EPHEMERIS_TYPE":0,"CLASSIFICATION_TYPE":"U","NORAD_CAT_ID":50493,"ELEMENT_SET_NO":999,"REV_AT_EPOCH":19549,"BSTAR":-0.00056454782,"MEAN_MOTION_DOT":-2.1e-6,"MEAN_MOTION_DDOT":0},{"OBJECT_NAME":"ONEWEB-0419","OBJECT_ID":"2021-132AB","EPOCH":"2025-11-30T13:29:19.207104","MEAN_MOTION":13.18684596,"ECCENTRICITY":0.00014898,"INCLINATION":87.9192,"RA_OF_ASC_NODE":14.9023,"ARG_OF_PERICENTER":91.1336,"MEAN_ANOMALY":268.9967,"EPHEMERIS_TYPE":0,"CLASSIFICATION_TYPE":"U","NORAD_CAT_ID":50494,"ELEMENT_SET_NO":999,"REV_AT_EPOCH":19540,"BSTAR":-1.7111746e-5,"MEAN_MOTION_DOT":6.0e-8,"MEAN_MOTION_DDOT":0},{"OBJECT_NAME":"ONEWEB-0420","OBJECT_ID":"2021-132AC","EPOCH":"2025-11-30T14:28:41.227680","MEAN_MOTION":13.18688938,"ECCENTRICITY":0.00019674,"INCLINATION":87.9196,"RA_OF_ASC_NODE":14.9056,"ARG_OF_PERICENTER":95.6098,"MEAN_ANOMALY":264.5259,"EPHEMERIS_TYPE":0,"CLASSIFICATION_TYPE":"U","NORAD_CAT_ID":50495,"ELEMENT_SET_NO":999,"REV_AT_EPOCH":19540,"BSTAR":2.4915133e-5,"MEAN_MOTION_DOT":2.3e-7,"MEAN_MOTION_DDOT":0},{"OBJECT_NAME":"ONEWEB-0421","OBJECT_ID":"2021-132AD","EPOCH":"2025-11-30T14:19:11.168256","MEAN_MOTION":13.18683913,"ECCENTRICITY":0.00019658,"INCLINATION":87.9196,"RA_OF_ASC_NODE":14.8999,"ARG_OF_PERICENTER":105.2278,"MEAN_ANOMALY":254.9072,"EPHEMERIS_TYPE":0,"CLASSIFICATION_TYPE":"U","NORAD_CAT_ID":50496,"ELEMENT_SET_NO":999,"REV_AT_EPOCH":19544,"BSTAR":8.0306547e-5,"MEAN_MOTION_DOT":4.5e-7,"MEAN_MOTION_DDOT":0},{"OBJECT_NAME":"ONEWEB-0424","OBJECT_ID":"2021-132AE","EPOCH":"2025-11-30T13:22:11.822592","MEAN_MOTION":13.18677842,"ECCENTRICITY":0.00014486,"INCLINATION":87.9196,"RA_OF_ASC_NODE":14.9036,"ARG_OF_PERICENTER":85.0308,"MEAN_ANOMALY":275.099,"EPHEMERIS_TYPE":0,"CLASSIFICATION_TYPE":"U","NORAD_CAT_ID":50497,"ELEMENT_SET_NO":999,"REV_AT_EPOCH":19546,"BSTAR":-0.0024553345,"MEAN_MOTION_DOT":-9.55e-6,"MEAN_MOTION_DDOT":0},{"OBJECT_NAME":"ONEWEB-0426","OBJECT_ID":"2021-132AF","EPOCH":"2025-11-30T14:14:26.677248","MEAN_MOTION":13.18685352,"ECCENTRICITY":0.00017769,"INCLINATION":87.9195,"RA_OF_ASC_NODE":14.8874,"ARG_OF_PERICENTER":119.699,"MEAN_ANOMALY":240.4319,"EPHEMERIS_TYPE":0,"CLASSIFICATION_TYPE":"U","NORAD_CAT_ID":50498,"ELEMENT_SET_NO":999,"REV_AT_EPOCH":19541,"BSTAR":-1.3666468e-5,"MEAN_MOTION_DOT":8.0e-8,"MEAN_MOTION_DDOT":0},{"OBJECT_NAME":"ONEWEB-0427","OBJECT_ID":"2021-132AG","EPOCH":"2025-11-30T13:19:49.551168","MEAN_MOTION":13.18685784,"ECCENTRICITY":0.00015307,"INCLINATION":87.9189,"RA_OF_ASC_NODE":14.8831,"ARG_OF_PERICENTER":99.3157,"MEAN_ANOMALY":260.8149,"EPHEMERIS_TYPE":0,"CLASSIFICATION_TYPE":"U","NORAD_CAT_ID":50499,"ELEMENT_SET_NO":999,"REV_AT_EPOCH":19543,"BSTAR":5.5091287e-5,"MEAN_MOTION_DOT":3.5e-7,"MEAN_MOTION_DDOT":0},{"OBJECT_NAME":"ONEWEB-0429","OBJECT_ID":"2021-132AH","EPOCH":"2025-11-30T14:50:04.652160","MEAN_MOTION":13.18684298,"ECCENTRICITY":0.00019464,"INCLINATION":87.9194,"RA_OF_ASC_NODE":14.9023,"ARG_OF_PERICENTER":93.7598,"MEAN_ANOMALY":266.3757,"EPHEMERIS_TYPE":0,"CLASSIFICATION_TYPE":"U","NORAD_CAT_ID":50500,"ELEMENT_SET_NO":999,"REV_AT_EPOCH":19541,"BSTAR":8.877252e-6,"MEAN_MOTION_DOT":1.6e-7,"MEAN_MOTION_DDOT":0},{"OBJECT_NAME":"ONEWEB-0430","OBJECT_ID":"2021-132AJ","EPOCH":"2025-11-30T14:33:27.228960","MEAN_MOTION":13.18685074,"ECCENTRICITY":0.00018213,"INCLINATION":87.9197,"RA_OF_ASC_NODE":14.9002,"ARG_OF_PERICENTER":88.9551,"MEAN_ANOMALY":271.179,"EPHEMERIS_TYPE":0,"CLASSIFICATION_TYPE":"U","NORAD_CAT_ID":50501,"ELEMENT_SET_NO":999,"REV_AT_EPOCH":19545,"BSTAR":3.3535687e-5,"MEAN_MOTION_DOT":2.6e-7,"MEAN_MOTION_DDOT":0},{"OBJECT_NAME":"ONEWEB-0432","OBJECT_ID":"2021-132AK","EPOCH":"2025-11-30T13:30:01.950912","MEAN_MOTION":13.18675378,"ECCENTRICITY":8.989e-5,"INCLINATION":87.9188,"RA_OF_ASC_NODE":14.8816,"ARG_OF_PERICENTER":85.5735,"MEAN_ANOMALY":274.55,"EPHEMERIS_TYPE":0,"CLASSIFICATION_TYPE":"U","NORAD_CAT_ID":50502,"ELEMENT_SET_NO":999,"REV_AT_EPOCH":19540,"BSTAR":0.00015583674,"MEAN_MOTION_DOT":7.4e-7,"MEAN_MOTION_DDOT":0},{"OBJECT_NAME":"ONEWEB-0440","OBJECT_ID":"2021-132AL","EPOCH":"2025-11-30T15:01:57.079776","MEAN_MOTION":13.18683618,"ECCENTRICITY":0.00021811,"INCLINATION":87.9194,"RA_OF_ASC_NODE":14.8862,"ARG_OF_PERICENTER":101.8155,"MEAN_ANOMALY":258.3222,"EPHEMERIS_TYPE":0,"CLASSIFICATION_TYPE":"U","NORAD_CAT_ID":50503,"ELEMENT_SET_NO":999,"REV_AT_EPOCH":19540,"BSTAR":1.56138e-5,"MEAN_MOTION_DOT":1.9e-7,"MEAN_MOTION_DDOT":0},{"OBJECT_NAME":"ONEWEB-0450","OBJECT_ID":"2021-132AM","EPOCH":"2025-11-30T14:52:39.733248","MEAN_MOTION":13.18686185,"ECCENTRICITY":0.00020122,"INCLINATION":87.9193,"RA_OF_ASC_NODE":14.91,"ARG_OF_PERICENTER":90.4341,"MEAN_ANOMALY":269.7021,"EPHEMERIS_TYPE":0,"CLASSIFICATION_TYPE":"U","NORAD_CAT_ID":50504,"ELEMENT_SET_NO":999,"REV_AT_EPOCH":19543,"BSTAR":-0.00018009123,"MEAN_MOTION_DOT":-5.8e-7,"MEAN_MOTION_DDOT":0},{"OBJECT_NAME":"ONEWEB-0410","OBJECT_ID":"2022-012A","EPOCH":"2025-11-30T11:48:56.354688","MEAN_MOTION":13.17648828,"ECCENTRICITY":0.00013473,"INCLINATION":87.9133,"RA_OF_ASC_NODE":45.3528,"ARG_OF_PERICENTER":155.7535,"MEAN_ANOMALY":204.3661,"EPHEMERIS_TYPE":0,"CLASSIFICATION_TYPE":"U","NORAD_CAT_ID":51622,"ELEMENT_SET_NO":999,"REV_AT_EPOCH":18753,"BSTAR":-8.396021e-5,"MEAN_MOTION_DOT":-2.0e-7,"MEAN_MOTION_DDOT":0}]
